{
    "week": 296,
    "satellites": [
        {
            "Name": "COSMOS 2545 (760)",
            "Line1": "1 45358U 20018A   24344.09005314 -.00000029  00000+0  00000+0 0  9995",
            "Line2": "2 45358  64.6679 331.8627 0011968 251.4262 108.4609  2.13102393 36834",
            "SatelliteNumber": "45358",
            "Classification": "U",
            "LaunchYear": "20",
            "LaunchNumber": "018",
            "PieceOfLaunch": "A",
            "EpochYear": "24",
            "EpochDay": 344.09005314,
            "FirstDerivativeMeanMotion": -2.9e-07,
            "SecondDerivativeMeanMotion": "00000+0",
            "BSTAR": "00000+0",
            "SetNumber": "999",
            "Inclination": 64.6679,
            "RAAN": 331.8627,
            "Eccentricity": 0.0011968,
            "ArgumentOfPerigee": 251.4262,
            "MeanAnomaly": 108.4609,
            "MeanMotion": 2.13102393,
            "RevolutionNumber": "3683"
        },
        {
            "Name": "COSMOS 2547 (705K)",
            "Line1": "1 46805U 20075A   24344.27654002  .00000072  00000+0  00000+0 0  9997",
            "Line2": "2 46805  64.5957 211.0104 0006006 233.4538 126.5737  2.13102747 32081",
            "SatelliteNumber": "46805",
            "Classification": "U",
            "LaunchYear": "20",
            "LaunchNumber": "075",
            "PieceOfLaunch": "A",
            "EpochYear": "24",
            "EpochDay": 344.27654002,
            "FirstDerivativeMeanMotion": 7.2e-07,
            "SecondDerivativeMeanMotion": "00000+0",
            "BSTAR": "00000+0",
            "SetNumber": "999",
            "Inclination": 64.5957,
            "RAAN": 211.0104,
            "Eccentricity": 0.0006006,
            "ArgumentOfPerigee": 233.4538,
            "MeanAnomaly": 126.5737,
            "MeanMotion": 2.13102747,
            "RevolutionNumber": "3208"
        },
        {
            "Name": "COSMOS 2557 (706K)",
            "Line1": "1 52984U 22075A   24344.44258556 -.00000031  00000+0  00000+0 0  9993",
            "Line2": "2 52984  64.5991 333.9642 0014119 278.5319  81.3271  2.13101822 18893",
            "SatelliteNumber": "52984",
            "Classification": "U",
            "LaunchYear": "22",
            "LaunchNumber": "075",
            "PieceOfLaunch": "A",
            "EpochYear": "24",
            "EpochDay": 344.44258556,
            "FirstDerivativeMeanMotion": -3.1e-07,
            "SecondDerivativeMeanMotion": "00000+0",
            "BSTAR": "00000+0",
            "SetNumber": "999",
            "Inclination": 64.5991,
            "RAAN": 333.9642,
            "Eccentricity": 0.0014119,
            "ArgumentOfPerigee": 278.5319,
            "MeanAnomaly": 81.3271,
            "MeanMotion": 2.13101822,
            "RevolutionNumber": "1889"
        },
        {
            "Name": "COSMOS 2559 (707K)",
            "Line1": "1 54031U 22130A   24344.38604223 -.00000031  00000+0  00000+0 0  9999",
            "Line2": "2 54031  64.5712 334.0777 0008031 234.8389 125.1052  2.13101173 16866",
            "SatelliteNumber": "54031",
            "Classification": "U",
            "LaunchYear": "22",
            "LaunchNumber": "130",
            "PieceOfLaunch": "A",
            "EpochYear": "24",
            "EpochDay": 344.38604223,
            "FirstDerivativeMeanMotion": -3.1e-07,
            "SecondDerivativeMeanMotion": "00000+0",
            "BSTAR": "00000+0",
            "SetNumber": "999",
            "Inclination": 64.5712,
            "RAAN": 334.0777,
            "Eccentricity": 0.0008031,
            "ArgumentOfPerigee": 234.8389,
            "MeanAnomaly": 125.1052,
            "MeanMotion": 2.13101173,
            "RevolutionNumber": "1686"
        },
        {
            "Name": "COSMOS 2564 (761)",
            "Line1": "1 54377U 22161A   24344.57618471  .00000075  00000+0  00000+0 0  9994",
            "Line2": "2 54377  64.7372 211.1368 0008102 208.2928 151.7462  2.13102019 15811",
            "SatelliteNumber": "54377",
            "Classification": "U",
            "LaunchYear": "22",
            "LaunchNumber": "161",
            "PieceOfLaunch": "A",
            "EpochYear": "24",
            "EpochDay": 344.57618471,
            "FirstDerivativeMeanMotion": 7.5e-07,
            "SecondDerivativeMeanMotion": "00000+0",
            "BSTAR": "00000+0",
            "SetNumber": "999",
            "Inclination": 64.7372,
            "RAAN": 211.1368,
            "Eccentricity": 0.0008102,
            "ArgumentOfPerigee": 208.2928,
            "MeanAnomaly": 151.7462,
            "MeanMotion": 2.13102019,
            "RevolutionNumber": "1581"
        },
        {
            "Name": "COSMOS 2569 (703K)",
            "Line1": "1 57517U 23114A   24344.59205059  .00000004  00000+0  00000+0 0  9990",
            "Line2": "2 57517  64.9995  91.3696 0009978 289.1815  70.7107  2.13104011 10444",
            "SatelliteNumber": "57517",
            "Classification": "U",
            "LaunchYear": "23",
            "LaunchNumber": "114",
            "PieceOfLaunch": "A",
            "EpochYear": "24",
            "EpochDay": 344.59205059,
            "FirstDerivativeMeanMotion": 4e-08,
            "SecondDerivativeMeanMotion": "00000+0",
            "BSTAR": "00000+0",
            "SetNumber": "999",
            "Inclination": 64.9995,
            "RAAN": 91.3696,
            "Eccentricity": 0.0009978,
            "ArgumentOfPerigee": 289.1815,
            "MeanAnomaly": 70.7107,
            "MeanMotion": 2.13104011,
            "RevolutionNumber": "1044"
        }
    ]
}